,H,e,a,q,i,om,w,ma,ad,n,per,moid,albedo
815691,17.2,0.1478,2.782,2.371,12.86,320.66,164.06,343.78,3.19,0.2124,1690.0,1.39,0.15343328713732102
638133,18.5,0.1477,2.344,1.9980000000000002,5.63,12.26,52.3,261.91,2.69,0.2747,1310.0,1.02,0.13531599585991924
1065757,18.92,0.0222,1.92,1.8769999999999998,25.48,116.6,76.01,144.26,1.96,0.3705,972.0,0.912,0.1446341770775454
970793,16.6,0.0509,3.1710000000000003,3.009,7.87,314.37,201.02,351.08,3.33,0.1746,2060.0,2.02,0.1553720939813749
1059551,17.38,0.3285,3.128,2.1,15.35,200.66,130.79,336.25,4.16,0.1782,2020.0,1.13,0.15511717709984166
736239,17.29,0.0362,2.628,2.533,22.6,43.81,45.78,263.39,2.72,0.2313,1560.0,1.57,0.14359874565912453
601448,18.22,0.0422,1.9809999999999999,1.8969999999999998,23.73,160.46,122.07,308.11,2.06,0.3536,1020.0,0.9179999999999999,0.14847757429710412
761854,17.9,0.2215,2.7239999999999998,2.121,12.53,258.68,168.04,170.94,3.33,0.2192,1640.0,1.14,0.14017829312432004
317025,16.59,0.292,2.573,1.8219999999999998,4.48,268.88,33.32,1.52,3.32,0.2388,1510.0,0.809,0.14078926325696745
1118902,14.7,0.1037,5.098,4.569,28.08,77.3,223.51,353.61,5.63,0.08563,4200.0,3.6,0.15297309851397203
1086739,17.18,0.1439,3.1,2.654,8.93,256.55,16.92,143.26,3.55,0.1806,1990.0,1.64,0.14386564924398168
404962,17.2,0.1791,3.122,2.563,1.0,339.3,29.8,82.05,3.68,0.1787,2010.0,1.56,0.1450663891870824
881844,18.1,0.1606,2.658,2.231,9.19,9.99,40.28,210.2,3.08,0.2275,1580.0,1.25,0.14170466015978533
568996,17.06,0.0681,2.812,2.6210000000000004,16.6,338.46,127.51,260.29,3.0,0.209,1720.0,1.66,0.1569548015247136
744505,17.12,0.1638,3.1889999999999996,2.667,5.02,169.6,26.53,28.51,3.71,0.17300000000000001,2080.0,1.67,0.13192870088268116
1014117,17.5,0.1277,3.0439999999999996,2.655,7.0,41.72,345.59,2.85,3.43,0.1856,1940.0,1.66,0.13715635512964436
819376,17.87,0.1094,2.997,2.6689999999999996,3.09,343.19,140.17,288.13,3.32,0.19,1890.0,1.69,0.1521715117272576
1006020,17.09,0.1887,2.6430000000000002,2.145,6.42,166.34,271.35,28.29,3.14,0.2294,1570.0,1.17,0.1485949820255563
449593,17.84,0.1516,2.275,1.93,5.49,55.9,244.39,28.65,2.62,0.2872,1250.0,0.9229999999999999,0.15218786540649898
171809,17.06,0.082,1.89,1.735,15.59,279.46,88.2,150.88,2.05,0.3793,949.0,0.802,0.14476676019324622
971994,17.9,0.0792,2.6239999999999997,2.416,6.89,110.2,25.87,140.47,2.83,0.2319,1550.0,1.43,0.13071410318131627
752810,18.6,0.3328,2.5789999999999997,1.7209999999999999,16.75,286.81,35.07,2.18,3.44,0.23800000000000002,1510.0,0.73,0.14040126894691074
397121,15.57,0.057,3.3339999999999996,3.1439999999999997,15.09,253.89,281.15,143.02,3.52,0.1619,2220.0,2.19,0.12995070727398572
722674,18.3,0.1222,2.2359999999999998,1.962,6.65,332.62,264.52,232.8,2.51,0.2949,1220.0,0.965,0.1339116928332579
1050442,18.8,0.1343,2.3480000000000003,2.033,5.32,129.65,143.62,144.71,2.66,0.2739,1310.0,1.02,0.13447903066754324
599384,17.88,0.2088,2.312,1.83,8.37,69.98,252.98,218.0,2.8,0.2803,1280.0,0.8390000000000001,0.14468720371340058
1104936,20.7,0.3855,1.453,0.893,26.94,43.25,304.14,128.84,2.01,0.5629,640.0,0.0224,0.1446564681037329
942025,18.8,0.1891,2.4219999999999997,1.964,0.47,212.81,172.89,230.56,2.88,0.2615,1380.0,0.968,0.13690897881940628
90815,15.14,0.1227,2.753,2.415,6.11,321.87,97.6,205.22,3.09,0.2158,1670.0,1.44,0.13647862990458395
92657,16.09,0.1062,2.41,2.154,6.03,314.01,82.17,202.66,2.67,0.2634,1370.0,1.17,0.1316697347631946
279877,17.36,0.056,1.883,1.778,21.61,136.04,177.12,343.1,1.99,0.3814,944.0,0.765,0.13528317809717166
176395,15.26,0.111,3.069,2.728,13.64,157.04,277.66,251.66,3.41,0.1834,1960.0,1.79,0.13744883277585845
1085807,25.7,0.5735,2.226,0.9490000000000001,4.15,57.08,126.61,10.83,3.5,0.2968,1210.0,0.0248,0.14671827044338082
579984,17.34,0.0344,2.783,2.687,5.06,283.88,74.34,295.06,2.88,0.2123,1700.0,1.69,0.146680665863714
1150547,19.56,0.0456,2.03,1.9380000000000002,19.03,318.82,263.35,147.66,2.12,0.3407,1060.0,1.0,0.14517463032440722
912023,17.79,0.1073,2.639,2.355,13.91,140.72,55.68,175.71,2.92,0.23,1570.0,1.39,0.1256080343861921
781444,18.94,0.338,2.6069999999999998,1.726,6.93,85.68,282.42,176.09,3.49,0.2342,1540.0,0.742,0.1408965460665125
396959,16.61,0.3174,2.778,1.896,9.49,157.68,215.21,186.54,3.66,0.2129,1690.0,0.905,0.15191273144205872
1010546,6.1,0.3269,53.89,36.275999999999996,32.26,146.45,65.38,187.5,71.51,0.002491,145000.0,35.4,0.14635349562709882
644082,17.68,0.1082,2.36,2.105,14.51,41.52,198.09,201.52,2.62,0.2719,1320.0,1.1,0.1350410030793857
484414,16.88,0.2192,2.526,1.972,2.34,145.15,169.22,289.95,3.08,0.2454,1470.0,0.96,0.1467432873063406
194074,17.65,0.1327,2.298,1.993,5.34,354.09,62.77,261.35,2.6,0.2829,1270.0,1.01,0.14197806754923353
532530,17.85,0.1904,2.37,1.919,2.76,257.21,72.91,146.08,2.82,0.2701,1330.0,0.9109999999999999,0.12501186582251322
783836,17.4,0.1781,2.65,2.178,12.68,241.64,7.92,248.37,3.12,0.2285,1580.0,1.17,0.15148199009910643
368742,16.53,0.2484,2.623,1.972,15.07,234.1,40.38,48.84,3.27,0.23199999999999998,1550.0,0.981,0.13684089567768834
129602,16.66,0.1519,2.373,2.012,3.1,71.26,65.57,192.53,2.73,0.2697,1330.0,1.03,0.1316181768107108
745514,17.14,0.1662,3.085,2.572,14.29,222.7,342.54,122.95,3.6,0.1819,1980.0,1.57,0.13288758333963538
679271,18.7,0.2387,2.339,1.781,3.53,316.26,97.81,117.41,2.9,0.2755,1310.0,0.7959999999999999,0.1258391512629825
60076,14.93,0.104,3.012,2.699,14.98,204.91,191.58,74.58,3.32,0.1886,1910.0,1.71,0.13263537195253006
678745,17.3,0.2334,2.645,2.0269999999999997,11.2,281.22,215.53,141.85,3.26,0.2292,1570.0,1.05,0.13504616030882144
154984,15.16,0.0673,3.076,2.8689999999999998,3.3,110.2,319.32,47.53,3.28,0.1827,1970.0,1.88,0.13555518759384977
1167641,18.32,0.1281,2.551,2.224,13.33,197.57,157.71,63.26,2.88,0.2419,1490.0,1.23,0.15072290018288437
994073,16.2,0.0868,3.147,2.873,15.34,122.15,196.4,303.57,3.42,0.1766,2040.0,1.86,0.12214368684567162
1053556,18.64,0.3874,2.591,1.587,5.87,346.92,59.27,4.01,3.6,0.2363,1520.0,0.607,0.14798382750163472
745072,17.8,0.0406,2.5580000000000003,2.454,6.12,115.02,111.01,282.0,2.66,0.2408,1490.0,1.45,0.15506274169228276
495110,17.91,0.1915,2.394,1.935,8.12,87.86,329.14,266.83,2.85,0.2662,1350.0,0.953,0.14097677334543215
204342,16.55,0.1337,2.356,2.041,7.5,340.46,35.82,272.08,2.67,0.2725,1320.0,1.05,0.14554469139943407
103225,16.39,0.0534,1.905,1.804,22.53,115.16,50.7,92.45,2.01,0.3747,961.0,0.846,0.12835201309882244
821627,16.4,0.1393,3.0639999999999996,2.638,13.52,70.65,131.06,235.42,3.49,0.1837,1960.0,1.66,0.1523910198231831
1151460,20.75,0.3295,2.225,1.492,5.15,241.25,129.58,25.21,2.96,0.297,1210.0,0.5,0.1493053064682665
1056547,18.43,0.1844,2.549,2.079,15.53,333.98,22.45,45.88,3.02,0.2422,1490.0,1.08,0.14449518344482204
1048047,17.12,0.189,2.7769999999999997,2.252,10.81,244.37,91.48,352.02,3.3,0.213,1690.0,1.27,0.11281132079309363
724882,18.52,0.1802,2.349,1.926,4.55,172.11,111.12,131.8,2.77,0.2737,1320.0,0.917,0.15220653034301873
270101,16.76,0.129,2.349,2.046,6.81,76.97,252.37,243.34,2.65,0.2738,1310.0,1.05,0.1315457633813263
1111203,24.4,0.2029,1.321,1.053,1.64,96.31,72.98,85.03,1.59,0.649,555.0,0.0661,0.12930513180932166
147884,17.05,0.1977,2.375,1.905,1.64,156.96,158.92,103.42,2.84,0.2694,1340.0,0.893,0.12319370974737168
144956,16.92,0.1799,2.338,1.9169999999999998,2.65,140.91,83.03,214.34,2.76,0.2757,1310.0,0.912,0.12781047112879695
1012336,17.55,0.19,3.0980000000000003,2.509,8.62,175.44,173.83,24.33,3.69,0.1808,1990.0,1.5,0.11711709108455992
120622,16.85,0.2534,2.353,1.757,3.02,28.44,318.22,189.99,2.95,0.2731,1320.0,0.752,0.12396683321926724
513892,18.34,0.1897,2.207,1.7890000000000001,2.62,11.63,344.91,201.82,2.63,0.3006,1200.0,0.785,0.13290634661900586
526538,18.07,0.1971,2.431,1.952,6.6,9.48,2.11,17.63,2.91,0.2601,1380.0,0.9520000000000001,0.14848475671226477
484676,18.56,0.135,2.397,2.074,0.94,169.79,247.71,185.97,2.72,0.2656,1360.0,1.09,0.13836076640022943
699718,17.4,0.1938,2.628,2.119,4.68,260.11,348.09,50.15,3.14,0.2314,1560.0,1.11,0.127511918456083
721150,17.5,0.1538,2.583,2.185,8.86,273.08,218.12,42.39,2.98,0.2375,1520.0,1.21,0.13508402694886662
217984,15.62,0.1064,2.696,2.4090000000000003,13.76,255.95,147.37,218.91,2.98,0.2226,1620.0,1.43,0.14582607143761453
495659,15.98,0.0449,3.2089999999999996,3.065,14.81,330.19,106.15,64.21,3.35,0.1715,2100.0,2.12,0.1537174433264034
426931,16.2,0.1692,3.071,2.552,12.71,81.12,326.7,218.27,3.59,0.1831,1970.0,1.57,0.14241711183586764
1094547,17.7,0.1776,3.112,2.56,9.83,61.92,287.41,148.84,3.66,0.1795,2010.0,1.58,0.134915767393298
919068,18.8,0.1454,2.455,2.0980000000000003,2.12,62.91,80.02,309.62,2.81,0.2563,1400.0,1.11,0.1347742157418247
914176,23.5,0.2495,1.382,1.037,13.76,141.43,317.85,128.29,1.73,0.6065,594.0,0.0948,0.13451463438567005
331730,17.95,0.2256,2.31,1.7890000000000001,4.41,100.76,265.83,176.83,2.83,0.2808,1280.0,0.794,0.13094749722091908
687304,18.0,0.0747,2.5580000000000003,2.367,5.64,57.98,354.41,161.12,2.75,0.2409,1490.0,1.38,0.15375344035015145
491067,18.43,0.2019,2.237,1.785,5.92,1.22,275.25,87.64,2.69,0.2946,1220.0,0.782,0.14537102024604134
234342,16.59,0.0597,2.79,2.623,4.74,160.43,255.54,288.2,2.96,0.2115,1700.0,1.64,0.14395452631163272
822473,18.5,0.1664,2.968,2.474,5.39,233.49,67.24,286.14,3.46,0.1928,1870.0,1.46,0.14795633436022365
729071,16.53,0.1109,2.7510000000000003,2.4459999999999997,12.07,327.76,271.43,357.51,3.06,0.21600000000000003,1670.0,1.47,0.1448530330214804
399326,16.62,0.1377,3.015,2.6,5.73,30.81,357.08,93.54,3.43,0.1883,1910.0,1.6,0.1440539615446094
1080169,16.77,0.036,3.174,3.06,8.25,258.71,346.69,82.6,3.29,0.1743,2070.0,2.05,0.13998090219156678
41780,15.68,0.1364,2.334,2.015,3.66,327.44,46.17,11.95,2.65,0.2765,1300.0,1.02,0.14677729668218828
211995,17.24,0.105,2.408,2.156,3.23,24.84,341.45,310.34,2.66,0.2637,1370.0,1.15,0.1232472334494661
1069895,18.15,0.2778,3.2,2.311,12.23,259.7,84.23,198.9,4.09,0.1722,2090.0,1.34,0.15220753730818434
368824,16.62,0.2286,2.7960000000000003,2.157,9.88,139.41,249.61,252.26,3.44,0.2108,1710.0,1.18,0.15346374555625
